CCSDS_OMM_VERS = 2.0
CREATION_DATE  = 
ORIGINATOR     = 

OBJECT_NAME    = ATLAS CENTAUR R/B
OBJECT_ID      = 1972-065B
CENTER_NAME    = EARTH
REF_FRAME      = TEME
TIME_SYSTEM    = UTC
MEAN_ELEMENT_THEORY = SGP/SGP4

EPOCH          = 2026-04-02T21:09:33.862752
MEAN_MOTION    = 14.77760435
ECCENTRICITY   = .00338381
INCLINATION    = 35.0007
RA_OF_ASC_NODE = 163.9702
ARG_OF_PERICENTER = 214.7844
MEAN_ANOMALY   = 145.0644

EPHEMERIS_TYPE = 0
CLASSIFICATION_TYPE = U
NORAD_CAT_ID   = 6155
ELEMENT_SET_NO = 999
REV_AT_EPOCH   = 84484
BSTAR          = .26610546E-3
MEAN_MOTION_DOT = .1937E-4
MEAN_MOTION_DDOT = 0

CCSDS_OMM_VERS = 2.0
CREATION_DATE  = 
ORIGINATOR     = 

OBJECT_NAME    = SL-8 R/B
OBJECT_ID      = 1975-112B
CENTER_NAME    = EARTH
REF_FRAME      = TEME
TIME_SYSTEM    = UTC
MEAN_ELEMENT_THEORY = SGP/SGP4

EPOCH          = 2026-04-02T22:02:18.034656
MEAN_MOTION    = 14.38218091
ECCENTRICITY   = .00146551
INCLINATION    = 74.0624
RA_OF_ASC_NODE = 334.3461
ARG_OF_PERICENTER = 57.6888
MEAN_ANOMALY   = 302.5683

EPHEMERIS_TYPE = 0
CLASSIFICATION_TYPE = U
NORAD_CAT_ID   = 8459
ELEMENT_SET_NO = 999
REV_AT_EPOCH   = 63535
BSTAR          = .11982676E-3
MEAN_MOTION_DOT = .338E-5
MEAN_MOTION_DDOT = 0

CCSDS_OMM_VERS = 2.0
CREATION_DATE  = 
ORIGINATOR     = 

OBJECT_NAME    = SL-3 R/B
OBJECT_ID      = 1977-057B
CENTER_NAME    = EARTH
REF_FRAME      = TEME
TIME_SYSTEM    = UTC
MEAN_ELEMENT_THEORY = SGP/SGP4

EPOCH          = 2026-04-02T22:17:20.746176
MEAN_MOTION    = 15.46216849
ECCENTRICITY   = .00071115
INCLINATION    = 97.5798
RA_OF_ASC_NODE = 265.9338
ARG_OF_PERICENTER = 186.5817
MEAN_ANOMALY   = 173.5340

EPHEMERIS_TYPE = 0
CLASSIFICATION_TYPE = U
NORAD_CAT_ID   = 10114
ELEMENT_SET_NO = 999
REV_AT_EPOCH   = 67207
BSTAR          = .44046226E-3
MEAN_MOTION_DOT = .21602E-3
MEAN_MOTION_DDOT = 0

CCSDS_OMM_VERS = 2.0
CREATION_DATE  = 
ORIGINATOR     = 

OBJECT_NAME    = SEASAT 1
OBJECT_ID      = 1978-064A
CENTER_NAME    = EARTH
REF_FRAME      = TEME
TIME_SYSTEM    = UTC
MEAN_ELEMENT_THEORY = SGP/SGP4

EPOCH          = 2026-04-02T21:55:47.283744
MEAN_MOTION    = 14.46181764
ECCENTRICITY   = .00027105
INCLINATION    = 108.0069
RA_OF_ASC_NODE = 176.3262
ARG_OF_PERICENTER = 273.6862
MEAN_ANOMALY   = 86.3974

EPHEMERIS_TYPE = 0
CLASSIFICATION_TYPE = U
NORAD_CAT_ID   = 10967
ELEMENT_SET_NO = 999
REV_AT_EPOCH   = 51001
BSTAR          = .17239734E-3
MEAN_MOTION_DOT = .48E-5
MEAN_MOTION_DDOT = 0

CCSDS_OMM_VERS = 2.0
CREATION_DATE  = 
ORIGINATOR     = 

OBJECT_NAME    = SL-14 R/B
OBJECT_ID      = 1979-011B
CENTER_NAME    = EARTH
REF_FRAME      = TEME
TIME_SYSTEM    = UTC
MEAN_ELEMENT_THEORY = SGP/SGP4

EPOCH          = 2026-04-02T22:14:17.812320
MEAN_MOTION    = 14.91942717
ECCENTRICITY   = .00154618
INCLINATION    = 82.5217
RA_OF_ASC_NODE = 73.5650
ARG_OF_PERICENTER = 342.3267
MEAN_ANOMALY   = 17.7412

EPHEMERIS_TYPE = 0
CLASSIFICATION_TYPE = U
NORAD_CAT_ID   = 11267
ELEMENT_SET_NO = 999
REV_AT_EPOCH   = 53239
BSTAR          = .1038868E-3
MEAN_MOTION_DOT = .1078E-4
MEAN_MOTION_DDOT = 0

CCSDS_OMM_VERS = 2.0
CREATION_DATE  = 
ORIGINATOR     = 

OBJECT_NAME    = SL-8 R/B
OBJECT_ID      = 1979-089B
CENTER_NAME    = EARTH
REF_FRAME      = TEME
TIME_SYSTEM    = UTC
MEAN_ELEMENT_THEORY = SGP/SGP4

EPOCH          = 2026-04-02T22:50:37.465728
MEAN_MOTION    = 14.42367704
ECCENTRICITY   = .0016584
INCLINATION    = 74.0699
RA_OF_ASC_NODE = 46.1282
ARG_OF_PERICENTER = 215.5487
MEAN_ANOMALY   = 144.4566

EPHEMERIS_TYPE = 0
CLASSIFICATION_TYPE = U
NORAD_CAT_ID   = 11574
ELEMENT_SET_NO = 999
REV_AT_EPOCH   = 43960
BSTAR          = .1560285E-3
MEAN_MOTION_DOT = .49E-5
MEAN_MOTION_DDOT = 0

CCSDS_OMM_VERS = 2.0
CREATION_DATE  = 
ORIGINATOR     = 

OBJECT_NAME    = SL-14 R/B
OBJECT_ID      = 1980-005B
CENTER_NAME    = EARTH
REF_FRAME      = TEME
TIME_SYSTEM    = UTC
MEAN_ELEMENT_THEORY = SGP/SGP4

EPOCH          = 2026-04-02T22:56:03.048576
MEAN_MOTION    = 14.90960169
ECCENTRICITY   = .00172299
INCLINATION    = 82.5108
RA_OF_ASC_NODE = 284.2115
ARG_OF_PERICENTER = 83.3039
MEAN_ANOMALY   = 277.0140

EPHEMERIS_TYPE = 0
CLASSIFICATION_TYPE = U
NORAD_CAT_ID   = 11672
ELEMENT_SET_NO = 999
REV_AT_EPOCH   = 48010
BSTAR          = .85701619E-4
MEAN_MOTION_DOT = .874E-5
MEAN_MOTION_DDOT = 0

CCSDS_OMM_VERS = 2.0
CREATION_DATE  = 
ORIGINATOR     = 

OBJECT_NAME    = SL-8 R/B
OBJECT_ID      = 1981-003B
CENTER_NAME    = EARTH
REF_FRAME      = TEME
TIME_SYSTEM    = UTC
MEAN_ELEMENT_THEORY = SGP/SGP4

EPOCH          = 2026-04-02T21:36:02.895264
MEAN_MOTION    = 15.12094438
ECCENTRICITY   = .02601447
INCLINATION    = 82.9330
RA_OF_ASC_NODE = 267.6159
ARG_OF_PERICENTER = 94.5203
MEAN_ANOMALY   = 268.5793

EPHEMERIS_TYPE = 0
CLASSIFICATION_TYPE = U
NORAD_CAT_ID   = 12139
ELEMENT_SET_NO = 999
REV_AT_EPOCH   = 31833
BSTAR          = .8356336E-3
MEAN_MOTION_DOT = .33568E-3
MEAN_MOTION_DDOT = 0

CCSDS_OMM_VERS = 2.0
CREATION_DATE  = 
ORIGINATOR     = 

OBJECT_NAME    = SL-3 R/B
OBJECT_ID      = 1981-046B
CENTER_NAME    = EARTH
REF_FRAME      = TEME
TIME_SYSTEM    = UTC
MEAN_ELEMENT_THEORY = SGP/SGP4

EPOCH          = 2026-04-02T22:04:03.307872
MEAN_MOTION    = 15.42618440
ECCENTRICITY   = .00180938
INCLINATION    = 81.2285
RA_OF_ASC_NODE = 260.6299
ARG_OF_PERICENTER = 296.0887
MEAN_ANOMALY   = 63.8493

EPHEMERIS_TYPE = 0
CLASSIFICATION_TYPE = U
NORAD_CAT_ID   = 12465
ELEMENT_SET_NO = 999
REV_AT_EPOCH   = 44216
BSTAR          = .46398709E-3
MEAN_MOTION_DOT = .20359E-3
MEAN_MOTION_DDOT = 0

CCSDS_OMM_VERS = 2.0
CREATION_DATE  = 
ORIGINATOR     = 

OBJECT_NAME    = SL-3 R/B
OBJECT_ID      = 1981-103B
CENTER_NAME    = EARTH
REF_FRAME      = TEME
TIME_SYSTEM    = UTC
MEAN_ELEMENT_THEORY = SGP/SGP4

EPOCH          = 2026-04-02T21:47:10.129632
MEAN_MOTION    = 15.21675688
ECCENTRICITY   = .00130569
INCLINATION    = 81.1615
RA_OF_ASC_NODE = 185.0224
ARG_OF_PERICENTER = 200.7729
MEAN_ANOMALY   = 159.2974

EPHEMERIS_TYPE = 0
CLASSIFICATION_TYPE = U
NORAD_CAT_ID   = 12904
ELEMENT_SET_NO = 999
REV_AT_EPOCH   = 97691
BSTAR          = .38412523E-3
MEAN_MOTION_DOT = .8732E-4
MEAN_MOTION_DDOT = 0

CCSDS_OMM_VERS = 2.0
CREATION_DATE  = 
ORIGINATOR     = 

OBJECT_NAME    = SL-3 R/B
OBJECT_ID      = 1982-013B
CENTER_NAME    = EARTH
REF_FRAME      = TEME
TIME_SYSTEM    = UTC
MEAN_ELEMENT_THEORY = SGP/SGP4

EPOCH          = 2026-04-02T20:10:18.481152
MEAN_MOTION    = 15.22239112
ECCENTRICITY   = .00235497
INCLINATION    = 81.1725
RA_OF_ASC_NODE = 132.4601
ARG_OF_PERICENTER = 98.6483
MEAN_ANOMALY   = 261.7418

EPHEMERIS_TYPE = 0
CLASSIFICATION_TYPE = U
NORAD_CAT_ID   = 13068
ELEMENT_SET_NO = 999
REV_AT_EPOCH   = 40802
BSTAR          = .28313242E-3
MEAN_MOTION_DOT = .6585E-4
MEAN_MOTION_DDOT = 0

CCSDS_OMM_VERS = 2.0
CREATION_DATE  = 
ORIGINATOR     = 

OBJECT_NAME    = SL-3 R/B
OBJECT_ID      = 1982-039B
CENTER_NAME    = EARTH
REF_FRAME      = TEME
TIME_SYSTEM    = UTC
MEAN_ELEMENT_THEORY = SGP/SGP4

EPOCH          = 2026-04-02T21:46:55.569504
MEAN_MOTION    = 15.10224550
ECCENTRICITY   = .00282682
INCLINATION    = 81.1562
RA_OF_ASC_NODE = 188.0359
ARG_OF_PERICENTER = 243.8472
MEAN_ANOMALY   = 115.9846

EPHEMERIS_TYPE = 0
CLASSIFICATION_TYPE = U
NORAD_CAT_ID   = 13154
ELEMENT_SET_NO = 999
REV_AT_EPOCH   = 38529
BSTAR          = .26644121E-3
MEAN_MOTION_DOT = .4418E-4
MEAN_MOTION_DDOT = 0

