ATLAS CENTAUR R/B       
1 06155U 72065B   26092.88164193  .00001937  00000+0  26611-3 0  9994
2 06155  35.0007 163.9702 0033838 214.7844 145.0644 14.77760435844843
SL-8 R/B                
1 08459U 75112B   26092.91826429  .00000338  00000+0  11983-3 0  9990
2 08459  74.0624 334.3461 0014655  57.6888 302.5683 14.38218091635354
SL-3 R/B                
1 10114U 77057B   26092.92871234  .00021602  00000+0  44046-3 0  9999
2 10114  97.5798 265.9338 0007111 186.5817 173.5340 15.46216849672077
SEASAT 1                
1 10967U 78064A   26092.91374171  .00000480  00000+0  17240-3 0  9998
2 10967 108.0069 176.3262 0002710 273.6862  86.3974 14.46181764510016
SL-14 R/B               
1 11267U 79011B   26092.92659505  .00001078  00000+0  10389-3 0  9994
2 11267  82.5217  73.5650 0015461 342.3267  17.7412 14.91942717532393
SL-8 R/B                
1 11574U 79089B   26092.95182252  .00000490  00000+0  15603-3 0  9994
2 11574  74.0699  46.1282 0016584 215.5487 144.4566 14.42367704439604
SL-14 R/B               
1 11672U 80005B   26092.95559084  .00000874  00000+0  85702-4 0  9998
2 11672  82.5108 284.2115 0017229  83.3039 277.0140 14.90960169480102
SL-8 R/B                
1 12139U 81003B   26092.90003351  .00033568  00000+0  83563-3 0  9990
2 12139  82.9330 267.6159 0260144  94.5203 268.5793 15.12094438318334
SL-3 R/B                
1 12465U 81046B   26092.91948273  .00020359  00000+0  46399-3 0  9991
2 12465  81.2285 260.6299 0018093 296.0887  63.8493 15.42618440442166
SL-3 R/B                
1 12904U 81103B   26092.90775613  .00008732  00000+0  38413-3 0  9997
2 12904  81.1615 185.0224 0013056 200.7729 159.2974 15.21675688976912
SL-3 R/B                
1 13068U 82013B   26092.84049168  .00006585  00000+0  28313-3 0  9994
2 13068  81.1725 132.4601 0023549  98.6483 261.7418 15.22239112408023
SL-3 R/B                
1 13154U 82039B   26092.90758761  .00004418  00000+0  26644-3 0  9999
2 13154  81.1562 188.0359 0028268 243.8472 115.9846 15.10224550385295
